[
  {
    "COMMENT": "GENERATED VIA SPACETRACK.ORG API",
    "ORIGINATOR": "18 SPCS",
    "NORAD_CAT_ID": "27421",
    "OBJECT_NAME": "SPOT 5",
    "OBJECT_TYPE": "PAYLOAD",
    "CLASSIFICATION_TYPE": "U",
    "INTLDES": "02021A",
    "EPOCH": "2023-07-07 15:03:23",
    "EPOCH_MICROSECONDS": "518656",
    "MEAN_MOTION": "14.52680595",
    "ECCENTRICITY": "0.0134008",
    "INCLINATION": "98.1386",
    "RA_OF_ASC_NODE": "251.0309",
    "ARG_OF_PERICENTER": "11.3149",
    "MEAN_ANOMALY": "349.1009",
    "EPHEMERIS_TYPE": "0",
    "ELEMENT_SET_NO": "999",
    "REV_AT_EPOCH": "10661",
    "BSTAR": "0.00012225",
    "MEAN_MOTION_DOT": "0.00000513",
    "MEAN_MOTION_DDOT": "0",
    "FILE": "3952136",
    "TLE_LINE0": "0 SPOT 5",
    "TLE_LINE1": "1 27421U 02021A   23188.62735554  .00000513  00000-0  12225-3 0  9994",
    "TLE_LINE2": "2 27421  98.1386 251.0309 0134008  11.3149 349.1009 14.52680595106613",
    "OBJECT_ID": "2002-021A",
    "OBJECT_NUMBER": "27421",
    "SEMIMAJOR_AXIS": "7095.044",
    "PERIOD": "99.127",
    "APOGEE": "811.988",
    "PERIGEE": "621.830",
    "DECAYED": "0"
  },
  {
    "COMMENT": "GENERATED VIA SPACETRACK.ORG API",
    "ORIGINATOR": "18 SPCS",
    "NORAD_CAT_ID": "27421",
    "OBJECT_NAME": "SPOT 5",
    "OBJECT_TYPE": "PAYLOAD",
    "CLASSIFICATION_TYPE": "U",
    "INTLDES": "02021A",
    "EPOCH": "2023-07-08 02:37:40",
    "EPOCH_MICROSECONDS": "857024",
    "MEAN_MOTION": "14.52680941",
    "ECCENTRICITY": "0.0133977",
    "INCLINATION": "98.1385",
    "RA_OF_ASC_NODE": "251.4989",
    "ARG_OF_PERICENTER": "9.8311",
    "MEAN_ANOMALY": "350.5459",
    "EPHEMERIS_TYPE": "0",
    "ELEMENT_SET_NO": "999",
    "REV_AT_EPOCH": "10667",
    "BSTAR": "0.00011723",
    "MEAN_MOTION_DOT": "0.0000049",
    "MEAN_MOTION_DDOT": "0",
    "FILE": "3952407",
    "TLE_LINE0": "0 SPOT 5",
    "TLE_LINE1": "1 27421U 02021A   23189.10950066  .00000490  00000-0  11723-3 0  9991",
    "TLE_LINE2": "2 27421  98.1385 251.4989 0133977   9.8311 350.5459 14.52680941106673",
    "OBJECT_ID": "2002-021A",
    "OBJECT_NUMBER": "27421",
    "SEMIMAJOR_AXIS": "7095.043",
    "PERIOD": "99.127",
    "APOGEE": "811.965",
    "PERIGEE": "621.850",
    "DECAYED": "0"
  },
  {
    "COMMENT": "GENERATED VIA SPACETRACK.ORG API",
    "ORIGINATOR": "18 SPCS",
    "NORAD_CAT_ID": "27421",
    "OBJECT_NAME": "SPOT 5",
    "OBJECT_TYPE": "PAYLOAD",
    "CLASSIFICATION_TYPE": "U",
    "INTLDES": "02021A",
    "EPOCH": "2023-07-08 10:53:36",
    "EPOCH_MICROSECONDS": "98592",
    "MEAN_MOTION": "14.52681237",
    "ECCENTRICITY": "0.0133964",
    "INCLINATION": "98.1385",
    "RA_OF_ASC_NODE": "251.8332",
    "ARG_OF_PERICENTER": "8.7749",
    "MEAN_ANOMALY": "351.5744",
    "EPHEMERIS_TYPE": "0",
    "ELEMENT_SET_NO": "999",
    "REV_AT_EPOCH": "10672",
    "BSTAR": "0.00011664",
    "MEAN_MOTION_DOT": "0.00000487",
    "MEAN_MOTION_DDOT": "0",
    "FILE": "3952689",
    "TLE_LINE0": "0 SPOT 5",
    "TLE_LINE1": "1 27421U 02021A   23189.45389003  .00000487  00000-0  11664-3 0  9996",
    "TLE_LINE2": "2 27421  98.1385 251.8332 0133964   8.7749 351.5744 14.52681237106721",
    "OBJECT_ID": "2002-021A",
    "OBJECT_NUMBER": "27421",
    "SEMIMAJOR_AXIS": "7095.042",
    "PERIOD": "99.127",
    "APOGEE": "811.955",
    "PERIGEE": "621.859",
    "DECAYED": "0"
  },
  {
    "COMMENT": "GENERATED VIA SPACETRACK.ORG API",
    "ORIGINATOR": "18 SPCS",
    "NORAD_CAT_ID": "27421",
    "OBJECT_NAME": "SPOT 5",
    "OBJECT_TYPE": "PAYLOAD",
    "CLASSIFICATION_TYPE": "U",
    "INTLDES": "02021A",
    "EPOCH": "2023-07-08 19:09:31",
    "EPOCH_MICROSECONDS": "337568",
    "MEAN_MOTION": "14.5268133",
    "ECCENTRICITY": "0.0133938",
    "INCLINATION": "98.1384",
    "RA_OF_ASC_NODE": "252.1675",
    "ARG_OF_PERICENTER": "7.7086",
    "MEAN_ANOMALY": "352.6126",
    "EPHEMERIS_TYPE": "0",
    "ELEMENT_SET_NO": "999",
    "REV_AT_EPOCH": "10677",
    "BSTAR": "0.00010896",
    "MEAN_MOTION_DOT": "0.00000452",
    "MEAN_MOTION_DDOT": "0",
    "FILE": "3953047",
    "TLE_LINE0": "0 SPOT 5",
    "TLE_LINE1": "1 27421U 02021A   23189.79827937  .00000452  00000-0  10896-3 0  9994",
    "TLE_LINE2": "2 27421  98.1384 252.1675 0133938   7.7086 352.6126 14.52681330106773",
    "OBJECT_ID": "2002-021A",
    "OBJECT_NUMBER": "27421",
    "SEMIMAJOR_AXIS": "7095.041",
    "PERIOD": "99.127",
    "APOGEE": "811.936",
    "PERIGEE": "621.877",
    "DECAYED": "0"
  },
  {
    "COMMENT": "GENERATED VIA SPACETRACK.ORG API",
    "ORIGINATOR": "18 SPCS",
    "NORAD_CAT_ID": "27421",
    "OBJECT_NAME": "SPOT 5",
    "OBJECT_TYPE": "PAYLOAD",
    "CLASSIFICATION_TYPE": "U",
    "INTLDES": "02021A",
    "EPOCH": "2023-07-09 03:25:26",
    "EPOCH_MICROSECONDS": "560128",
    "MEAN_MOTION": "14.52681551",
    "ECCENTRICITY": "0.0133912",
    "INCLINATION": "98.1384",
    "RA_OF_ASC_NODE": "252.5018",
    "ARG_OF_PERICENTER": "6.6438",
    "MEAN_ANOMALY": "353.6493",
    "EPHEMERIS_TYPE": "0",
    "ELEMENT_SET_NO": "999",
    "REV_AT_EPOCH": "10682",
    "BSTAR": "0.00010518",
    "MEAN_MOTION_DOT": "0.00000434",
    "MEAN_MOTION_DDOT": "0",
    "FILE": "3953340",
    "TLE_LINE0": "0 SPOT 5",
    "TLE_LINE1": "1 27421U 02021A   23190.14266852  .00000434  00000-0  10518-3 0  9999",
    "TLE_LINE2": "2 27421  98.1384 252.5018 0133912   6.6438 353.6493 14.52681551106828",
    "OBJECT_ID": "2002-021A",
    "OBJECT_NUMBER": "27421",
    "SEMIMAJOR_AXIS": "7095.041",
    "PERIOD": "99.127",
    "APOGEE": "811.917",
    "PERIGEE": "621.895",
    "DECAYED": "0"
  },
  {
    "COMMENT": "GENERATED VIA SPACETRACK.ORG API",
    "ORIGINATOR": "18 SPCS",
    "NORAD_CAT_ID": "27421",
    "OBJECT_NAME": "SPOT 5",
    "OBJECT_TYPE": "PAYLOAD",
    "CLASSIFICATION_TYPE": "U",
    "INTLDES": "02021A",
    "EPOCH": "2023-07-09 10:02:10",
    "EPOCH_MICROSECONDS": "729536",
    "MEAN_MOTION": "14.52681808",
    "ECCENTRICITY": "0.0133901",
    "INCLINATION": "98.1384",
    "RA_OF_ASC_NODE": "252.7692",
    "ARG_OF_PERICENTER": "5.7926",
    "MEAN_ANOMALY": "354.4781",
    "EPHEMERIS_TYPE": "0",
    "ELEMENT_SET_NO": "999",
    "REV_AT_EPOCH": "10686",
    "BSTAR": "0.00010506",
    "MEAN_MOTION_DOT": "0.00000434",
    "MEAN_MOTION_DDOT": "0",
    "FILE": "3953637",
    "TLE_LINE0": "0 SPOT 5",
    "TLE_LINE1": "1 27421U 02021A   23190.41817974  .00000434  00000-0  10506-3 0  9993",
    "TLE_LINE2": "2 27421  98.1384 252.7692 0133901   5.7926 354.4781 14.52681808106866",
    "OBJECT_ID": "2002-021A",
    "OBJECT_NUMBER": "27421",
    "SEMIMAJOR_AXIS": "7095.040",
    "PERIOD": "99.127",
    "APOGEE": "811.908",
    "PERIGEE": "621.902",
    "DECAYED": "0"
  },
  {
    "COMMENT": "GENERATED VIA SPACETRACK.ORG API",
    "ORIGINATOR": "18 SPCS",
    "NORAD_CAT_ID": "27421",
    "OBJECT_NAME": "SPOT 5",
    "OBJECT_TYPE": "PAYLOAD",
    "CLASSIFICATION_TYPE": "U",
    "INTLDES": "02021A",
    "EPOCH": "2023-07-09 18:18:05",
    "EPOCH_MICROSECONDS": "940864",
    "MEAN_MOTION": "14.52681916",
    "ECCENTRICITY": "0.0133876",
    "INCLINATION": "98.1384",
    "RA_OF_ASC_NODE": "253.1035",
    "ARG_OF_PERICENTER": "4.7327",
    "MEAN_ANOMALY": "355.51",
    "EPHEMERIS_TYPE": "0",
    "ELEMENT_SET_NO": "999",
    "REV_AT_EPOCH": "10691",
    "BSTAR": "0.00009672",
    "MEAN_MOTION_DOT": "0.00000395",
    "MEAN_MOTION_DDOT": "0",
    "FILE": "3953872",
    "TLE_LINE0": "0 SPOT 5",
    "TLE_LINE1": "1 27421U 02021A   23190.76256876  .00000395  00000-0  96720-4 0  9998",
    "TLE_LINE2": "2 27421  98.1384 253.1035 0133876   4.7327 355.5100 14.52681916106910",
    "OBJECT_ID": "2002-021A",
    "OBJECT_NUMBER": "27421",
    "SEMIMAJOR_AXIS": "7095.040",
    "PERIOD": "99.127",
    "APOGEE": "811.890",
    "PERIGEE": "621.919",
    "DECAYED": "0"
  },
  {
    "COMMENT": "GENERATED VIA SPACETRACK.ORG API",
    "ORIGINATOR": "18 SPCS",
    "NORAD_CAT_ID": "27421",
    "OBJECT_NAME": "SPOT 5",
    "OBJECT_TYPE": "PAYLOAD",
    "CLASSIFICATION_TYPE": "U",
    "INTLDES": "02021A",
    "EPOCH": "2023-07-10 02:34:01",
    "EPOCH_MICROSECONDS": "135776",
    "MEAN_MOTION": "14.52682208",
    "ECCENTRICITY": "0.0133849",
    "INCLINATION": "98.1383",
    "RA_OF_ASC_NODE": "253.4378",
    "ARG_OF_PERICENTER": "3.6714",
    "MEAN_ANOMALY": "356.5433",
    "EPHEMERIS_TYPE": "0",
    "ELEMENT_SET_NO": "999",
    "REV_AT_EPOCH": "10696",
    "BSTAR": "0.000094586",
    "MEAN_MOTION_DOT": "0.00000385",
    "MEAN_MOTION_DDOT": "0",
    "FILE": "3954134",
    "TLE_LINE0": "0 SPOT 5",
    "TLE_LINE1": "1 27421U 02021A   23191.10695759  .00000385  00000-0  94586-4 0  9991",
    "TLE_LINE2": "2 27421  98.1383 253.4378 0133849   3.6714 356.5433 14.52682208106960",
    "OBJECT_ID": "2002-021A",
    "OBJECT_NUMBER": "27421",
    "SEMIMAJOR_AXIS": "7095.039",
    "PERIOD": "99.127",
    "APOGEE": "811.870",
    "PERIGEE": "621.937",
    "DECAYED": "0"
  },
  {
    "COMMENT": "GENERATED VIA SPACETRACK.ORG API",
    "ORIGINATOR": "18 SPCS",
    "NORAD_CAT_ID": "27421",
    "OBJECT_NAME": "SPOT 5",
    "OBJECT_TYPE": "PAYLOAD",
    "CLASSIFICATION_TYPE": "U",
    "INTLDES": "02021A",
    "EPOCH": "2023-07-10 10:49:56",
    "EPOCH_MICROSECONDS": "332416",
    "MEAN_MOTION": "14.52682452",
    "ECCENTRICITY": "0.0133827",
    "INCLINATION": "98.1383",
    "RA_OF_ASC_NODE": "253.7721",
    "ARG_OF_PERICENTER": "2.6086",
    "MEAN_ANOMALY": "357.5779",
    "EPHEMERIS_TYPE": "0",
    "ELEMENT_SET_NO": "999",
    "REV_AT_EPOCH": "10701",
    "BSTAR": "0.000091975",
    "MEAN_MOTION_DOT": "0.00000373",
    "MEAN_MOTION_DDOT": "0",
    "FILE": "3954441",
    "TLE_LINE0": "0 SPOT 5",
    "TLE_LINE1": "1 27421U 02021A   23191.45134644  .00000373  00000-0  91975-4 0  9996",
    "TLE_LINE2": "2 27421  98.1383 253.7721 0133827   2.6086 357.5779 14.52682452107014",
    "OBJECT_ID": "2002-021A",
    "OBJECT_NUMBER": "27421",
    "SEMIMAJOR_AXIS": "7095.038",
    "PERIOD": "99.127",
    "APOGEE": "811.854",
    "PERIGEE": "621.952",
    "DECAYED": "0"
  }
]